[{"OBJECT_NAME":"STARLINK-2557","OBJECT_ID":"2021-036Z","EPOCH":"2026-03-09T10:33:32.118912","MEAN_MOTION":15.30191386,"ECCENTRICITY":0.00013832,"INCLINATION":53.1592,"RA_OF_ASC_NODE":76.5327,"ARG_OF_PERICENTER":91.7171,"MEAN_ANOMALY":268.3988,"EPHEMERIS_TYPE":0,"CLASSIFICATION_TYPE":"U","NORAD_CAT_ID":48299,"ELEMENT_SET_NO":999,"REV_AT_EPOCH":26837,"BSTAR":0.00013371948,"MEAN_MOTION_DOT":3.602e-5,"MEAN_MOTION_DDOT":0},{"OBJECT_NAME":"COSMOS 2251 DEB","OBJECT_ID":"1993-036AWN","EPOCH":"2026-03-09T06:26:08.321568","MEAN_MOTION":15.11257706,"ECCENTRICITY":0.00842289,"INCLINATION":74.0116,"RA_OF_ASC_NODE":284.5024,"ARG_OF_PERICENTER":350.308,"MEAN_ANOMALY":9.6482,"EPHEMERIS_TYPE":0,"CLASSIFICATION_TYPE":"U","NORAD_CAT_ID":35996,"ELEMENT_SET_NO":999,"REV_AT_EPOCH":73632,"BSTAR":0.00055219842,"MEAN_MOTION_DOT":0.00010085,"MEAN_MOTION_DDOT":0}]
